     2              NAVIGATION DATA                         RINEX VERSION / TYPE
CCRINEXN V1.6.0 UX  CDDIS               08-JAN-21 18:31     PGM / RUN BY / DATE 
IGS BROADCAST EPHEMERIS FILE                                COMMENT             
    0.7451D-08 -0.1490D-07 -0.5960D-07  0.1192D-06          ION ALPHA           
    0.9011D+05 -0.6554D+05 -0.1311D+06  0.4588D+06          ION BETA            
   -0.931322574615D-09-0.532907051820D-14   589824     2139 DELTA-UTC: A0,A1,T,W
    18                                                      LEAP SECONDS        
                                                            END OF HEADER       
22 21  1  7  2  0  0.0-0.702629797161D-03 0.659383658785D-11 0.000000000000D+00
    0.990000000000D+02-0.853125000000D+01 0.540308220292D-08 0.141672825786D+01
   -0.651925802231D-06 0.683921505697D-02 0.580027699471D-05 0.515363294220D+04
    0.352800000000D+06 0.132247805595D-06 0.107744838176D-01-0.838190317154D-07
    0.933546385108D+00 0.250312500000D+03-0.105564465572D+01-0.855678499587D-08
    0.175007289756D-09 0.100000000000D+01 0.213900000000D+04 0.000000000000D+00
    0.200000000000D+01 0.000000000000D+00-0.181607902050D-07 0.990000000000D+02
    0.345618000000D+06 0.400000000000D+01 0.000000000000D+00 0.000000000000D+00
23 21  1  7  2  0  0.0 0.114896800369D-03 0.193267624127D-11 0.000000000000D+00
    0.590000000000D+02-0.188750000000D+02 0.470876756764D-08 0.604812583043D-01
   -0.103749334812D-05 0.109015847556D-02 0.619702041149D-05 0.515363286781D+04
    0.352800000000D+06 0.409781932831D-07 0.795631711311D-01-0.987201929092D-07
    0.963054436089D+00 0.265031250000D+03 0.231033875831D+01-0.822462830307D-08
    0.789318592573D-10 0.100000000000D+01 0.213900000000D+04 0.000000000000D+00
    0.200000000000D+01 0.000000000000D+00-0.838190317154D-08 0.315000000000D+03
    0.345618000000D+06 0.400000000000D+01 0.000000000000D+00 0.000000000000D+00
24 21  1  7  2  0  0.0 0.401213765144D-05-0.568434188608D-12 0.000000000000D+00
    0.900000000000D+01 0.611875000000D+02 0.508664045042D-08 0.572519307202D+00
    0.314973294735D-05 0.108124696417D-01 0.100024044514D-04 0.515362353325D+04
    0.352800000000D+06-0.113621354103D-06 0.213275174309D+01 0.212341547012D-06
    0.935283786118D+00 0.175750000000D+03 0.718072448291D+00-0.839499254228D-08
    0.139291516337D-10 0.100000000000D+01 0.213900000000D+04 0.000000000000D+00
    0.200000000000D+01 0.000000000000D+00 0.279396772385D-08 0.900000000000D+01
    0.350509000000D+06 0.400000000000D+01 0.000000000000D+00 0.000000000000D+00
25 21  1  7  2  0  0.0 0.546644441783D-04 0.761701812735D-11 0.000000000000D+00
    0.100000000000D+02 0.419687500000D+02 0.486127392014D-08-0.140021955064D+01
    0.231154263020D-05 0.960992940236D-02 0.441074371338D-05 0.515368121910D+04
    0.352800000000D+06 0.206753611565D-06-0.303747109923D+01 0.577419996262D-07
    0.963040547144D+00 0.294593750000D+03 0.930237606736D+00-0.837784897104D-08
    0.653598653579D-10 0.100000000000D+01 0.213900000000D+04 0.000000000000D+00
    0.200000000000D+01 0.000000000000D+00 0.558793544769D-08 0.100000000000D+02
    0.345618000000D+06 0.400000000000D+01 0.000000000000D+00 0.000000000000D+00
27 21  1  7  2  0  0.0-0.508087687194D-04-0.784439180279D-11 0.000000000000D+00
    0.870000000000D+02-0.498437500000D+02 0.423374778116D-08 0.243650376417D+01
   -0.260397791862D-05 0.880784715992D-02 0.722892582417D-05 0.515367969322D+04
    0.352800000000D+06-0.126659870148D-06-0.199034994698D+01-0.122934579849D-06
    0.976851994767D+00 0.249437500000D+03 0.566417797735D+00-0.799390440678D-08
   -0.276797244002D-09 0.100000000000D+01 0.213900000000D+04 0.000000000000D+00
    0.200000000000D+01 0.000000000000D+00 0.186264514923D-08 0.870000000000D+02
    0.345618000000D+06 0.400000000000D+01 0.000000000000D+00 0.000000000000D+00
28 21  1  7  2  0  0.0 0.633126124740D-03-0.511590769747D-11 0.000000000000D+00
    0.930000000000D+02 0.457187500000D+02 0.440982654412D-08-0.312366123367D+01
    0.233948230743D-05 0.181301622652D-01 0.451691448688D-05 0.515367058945D+04
    0.352800000000D+06 0.339001417160D-06-0.294337959649D+01 0.199303030968D-06
    0.974913585887D+00 0.296093750000D+03-0.135814460911D+01-0.794068790438D-08
    0.242867259253D-10 0.100000000000D+01 0.213900000000D+04 0.000000000000D+00
    0.400000000000D+01 0.000000000000D+00-0.111758708954D-07 0.930000000000D+02
    0.345618000000D+06 0.400000000000D+01 0.000000000000D+00 0.000000000000D+00
29 21  1  7  2  0  0.0-0.270912889391D-03-0.738964445190D-11 0.000000000000D+00
    0.530000000000D+02-0.455937500000D+02 0.408052711319D-08 0.248567987098D+01
   -0.223889946938D-05 0.145407940727D-02 0.817142426968D-05 0.515370435142D+04
    0.352800000000D+06 0.121071934700D-06-0.191833085859D+01 0.111758708954D-07
    0.984679144845D+00 0.233500000000D+03 0.221110076097D+01-0.797747515100D-08
   -0.287154818294D-09 0.100000000000D+01 0.213900000000D+04 0.000000000000D+00
    0.200000000000D+01 0.000000000000D+00-0.102445483208D-07 0.530000000000D+02
    0.345618000000D+06 0.400000000000D+01 0.000000000000D+00 0.000000000000D+00
30 21  1  7  2  0  0.0-0.364847481251D-03-0.613908923697D-11 0.000000000000D+00
    0.320000000000D+02 0.551562500000D+02 0.496877839814D-08-0.421090541437D+00
    0.296160578728D-05 0.474426173605D-02 0.944547355175D-05 0.515376724243D+04
    0.352800000000D+06 0.689178705216D-07 0.222796751885D+01 0.260770320892D-07
    0.937237699004D+00 0.184250000000D+03-0.284858935580D+01-0.832498962638D-08
    0.115004790411D-09 0.100000000000D+01 0.213900000000D+04 0.000000000000D+00
    0.200000000000D+01 0.000000000000D+00 0.372529029846D-08 0.320000000000D+02
    0.345618000000D+06 0.400000000000D+01 0.000000000000D+00 0.000000000000D+00
31 21  1  7  2  0  0.0-0.923322513699D-04-0.238742359215D-11 0.000000000000D+00
    0.450000000000D+02 0.690937500000D+02 0.458733393801D-08-0.843498693689D+00
    0.360235571861D-05 0.998407485895D-02 0.101197510958D-04 0.515372163200D+04
    0.352800000000D+06 0.212341547012D-06 0.222515387242D+01-0.931322574615D-07
    0.956348896524D+00 0.175093750000D+03 0.230383247404D+00-0.812283834882D-08
    0.223937899341D-09 0.100000000000D+01 0.213900000000D+04 0.000000000000D+00
    0.200000000000D+01 0.000000000000D+00-0.130385160446D-07 0.450000000000D+02
    0.345618000000D+06 0.400000000000D+01 0.000000000000D+00 0.000000000000D+00
32 21  1  7  2  0  0.0 0.128787942231D-04 0.216004991671D-11 0.000000000000D+00
    0.100000000000D+03-0.435312500000D+02 0.453411743562D-08-0.310404251622D+01
   -0.219978392124D-05 0.439523439854D-02 0.975653529167D-05 0.515362253952D+04
    0.352800000000D+06 0.521540641785D-07 0.114471124845D+01-0.409781932831D-07
    0.956833055115D+00 0.188312500000D+03-0.245958436022D+01-0.796890336538D-08
   -0.206437170365D-09 0.100000000000D+01 0.213900000000D+04 0.000000000000D+00
    0.200000000000D+01 0.000000000000D+00 0.465661287308D-09 0.100000000000D+03
    0.345618000000D+06 0.400000000000D+01 0.000000000000D+00 0.000000000000D+00
 8 21  1  7  3 59 44.0-0.568944960833D-05-0.136424205266D-11 0.000000000000D+00
    0.300000000000D+02-0.517812500000D+02 0.449768734673D-08-0.274617268617D+01
   -0.259280204773D-05 0.603469926864D-02 0.740960240364D-05 0.515377595711D+04
    0.359984000000D+06-0.819563865662D-07-0.200650909870D+01-0.130385160446D-07
    0.968338693685D+00 0.242375000000D+03-0.468202015865D-01-0.811248077453D-08
   -0.261439461432D-09 0.100000000000D+01 0.213900000000D+04 0.000000000000D+00
    0.200000000000D+01 0.000000000000D+00 0.512227416039D-08 0.300000000000D+02
    0.352818000000D+06 0.400000000000D+01 0.000000000000D+00 0.000000000000D+00
13 21  1  7  3 59 44.0 0.831722281873D-04 0.409272615798D-11 0.000000000000D+00
    0.000000000000D+00-0.328750000000D+02 0.427660662439D-08 0.281919515788D+01
   -0.168383121491D-05 0.491216406226D-02 0.967830419540D-05 0.515368420601D+04
    0.359984000000D+06 0.223517417908D-07 0.128169175981D+01 0.186264514923D-08
    0.967662216958D+00 0.196656250000D+03 0.104190715422D+01-0.783889753109D-08
   -0.192508023411D-09 0.100000000000D+01 0.213900000000D+04 0.000000000000D+00
    0.200000000000D+01 0.000000000000D+00-0.116415321827D-07 0.000000000000D+00
    0.359970000000D+06 0.000000000000D+00 0.000000000000D+00 0.000000000000D+00
17 21  1  7  3 59 44.0 0.377018935978D-03 0.488853402203D-11 0.000000000000D+00
    0.240000000000D+02-0.499375000000D+02 0.409838499990D-08-0.290733210420D+01
   -0.244751572609D-05 0.136106063146D-01 0.670365989208D-05 0.515352871704D+04
    0.359984000000D+06 0.217929482460D-06-0.193056996186D+01 0.298023223877D-07
    0.982901168339D+00 0.259437500000D+03-0.159167784976D+01-0.777389524251D-08
   -0.181436128972D-09 0.100000000000D+01 0.213900000000D+04 0.000000000000D+00
    0.200000000000D+01 0.000000000000D+00-0.111758708954D-07 0.240000000000D+02
    0.355446000000D+06 0.400000000000D+01 0.000000000000D+00 0.000000000000D+00
19 21  1  7  3 59 44.0-0.552185811102D-04 0.500222085975D-11 0.000000000000D+00
    0.250000000000D+02-0.477812500000D+02 0.419410327267D-08-0.326948026743D+00
   -0.242330133915D-05 0.899308663793D-02 0.717677175999D-05 0.515361230087D+04
    0.359984000000D+06-0.143423676491D-06-0.188523426079D+01-0.279396772385D-07
    0.981283593486D+00 0.254687500000D+03 0.176667585401D+01-0.814105339327D-08
   -0.166435504135D-09 0.100000000000D+01 0.213900000000D+04 0.000000000000D+00
    0.200000000000D+01 0.000000000000D+00-0.153668224812D-07 0.250000000000D+02
    0.352818000000D+06 0.400000000000D+01 0.000000000000D+00 0.000000000000D+00
